CAPELLA-11 (ACADIA-1)   
1 57693U 23126A   26188.17760253  .00003317  00000+0  41589-3 0  9993
2 57693  53.0059  98.1326 0002116 116.8039 243.3157 14.84607915155091
CAPELLA-14 (ACADIA-4)   
1 59444U 24066C   26188.29055114  .00009658  00000+0  60539-3 0  9999
2 59444  45.6020 149.3449 0001667 169.4152 190.6769 15.09659639115522
CAPELLA-13 (ACADIA-3)   
1 60419U 24142A   26188.72409733  .00003305  00000+0  38525-3 0  9999
2 60419  53.0057 327.9238 0001270  93.2224 266.8902 14.87659041103460
CAPELLA-15 (ACADIA-5)   
1 60544U 24149CE  26188.77206506  .00002017  00000+0  20241-3 0  9998
2 60544  97.6767 261.1588 0003729  10.0044 350.1248 14.92384542102923
CAPELLA-17 (ACADIA-7)   
1 64583U 25135BH  26188.80036058  .00004703  00000+0  47441-3 0  9993
2 64583  97.7699 302.1178 0003715 283.3288  76.7516 14.91568241 56922
CAPELLA-16 (ACADIA-6)   
1 65318U 25188D   26188.71997341  .00003311  00000+0  31591-3 0  9992
2 65318  97.7375 263.5641 0005093 155.0168 205.1300 14.93996016 46989
CAPELLA-19 (ACADIA-9)   
1 67384U 26004X   26187.98714787  .00003686  00000+0  42122-3 0  9991
2 67384  97.7975 186.0054 0001897  95.2342 264.9091 14.86641894 26211
CAPELLA-18 (ACADIA-8)   
1 67385U 26004Y   26188.46833387  .00001055  00000+0  12493-3 0  9990
2 67385  97.8013 186.6279 0001548  86.8414 273.2979 14.86636226 26299
CAPELLA-20 (ACADIA-10)  
1 68485U 26067BX  26188.75270866  .00004196  00000+0  42164-3 0  9997
2 68485  97.7577 146.7188 0001031 156.8334 203.2931 14.91788671 14798
